{
  "norad_id": 65957,
  "name": "KUIPER-00128",
  "history": [
    {
      "epoch": "2026-04-14T10:14:29.205024Z",
      "apogee_km": 629.7097222741331,
      "perigee_km": 629.3911528032231,
      "latitude_deg": 1.930131482291765e-05,
      "longitude_deg": -161.13688679561213,
      "height_km": 630.328846435414,
      "semi_major_axis_km": 7007.687437538678,
      "eccentricity": 2.273e-05,
      "inclination_deg": 51.8962,
      "raan_deg": 195.0881,
      "arg_perigee_deg": 101.7227,
      "mean_anomaly_deg": 258.3761,
      "mean_motion_rev_day": 14.79928309
    },
    {
      "epoch": "2026-04-15T12:10:23.278368Z",
      "apogee_km": 629.8820613113494,
      "perigee_km": 629.2278231916198,
      "latitude_deg": 2.6563114135416844e-06,
      "longitude_deg": 164.0488199574444,
      "height_km": 630.4068593919619,
      "semi_major_axis_km": 7007.691942251484,
      "eccentricity": 4.668e-05,
      "inclination_deg": 51.9014,
      "raan_deg": 190.3141,
      "arg_perigee_deg": 108.831,
      "mean_anomaly_deg": 251.2703,
      "mean_motion_rev_day": 14.79926882
    },
    {
      "epoch": "2026-04-16T12:29:02.846112Z",
      "apogee_km": 629.805112648929,
      "perigee_km": 629.3538157086368,
      "latitude_deg": -7.61363808016224e-05,
      "longitude_deg": 153.9065779580442,
      "height_km": 630.3006519459132,
      "semi_major_axis_km": 7007.716464178783,
      "eccentricity": 3.22e-05,
      "inclination_deg": 51.9007,
      "raan_deg": 185.8352,
      "arg_perigee_deg": 83.5802,
      "mean_anomaly_deg": 276.5196,
      "mean_motion_rev_day": 14.79919114
    },
    {
      "epoch": "2026-04-17T14:24:56.369088Z",
      "apogee_km": 629.8073443359326,
      "perigee_km": 629.3065745255908,
      "latitude_deg": 5.918966839968166e-05,
      "longitude_deg": 119.09090242472631,
      "height_km": 630.301589754279,
      "semi_major_axis_km": 7007.693959430761,
      "eccentricity": 3.573e-05,
      "inclination_deg": 51.9012,
      "raan_deg": 181.0574,
      "arg_perigee_deg": 89.593,
      "mean_anomaly_deg": 270.5074,
      "mean_motion_rev_day": 14.79926243
    },
    {
      "epoch": "2026-04-18T11:29:05.992512Z",
      "apogee_km": 629.8136982140695,
      "perigee_km": 629.2763491564938,
      "latitude_deg": -1.441407379443992e-05,
      "longitude_deg": 158.30366084502487,
      "height_km": 630.2776763410792,
      "semi_major_axis_km": 7007.682023685282,
      "eccentricity": 3.834e-05,
      "inclination_deg": 51.9009,
      "raan_deg": 177.1756,
      "arg_perigee_deg": 87.0762,
      "mean_anomaly_deg": 273.0244,
      "mean_motion_rev_day": 14.79930024
    },
    {
      "epoch": "2026-04-19T03:41:31.914240Z",
      "apogee_km": 629.8148555054431,
      "perigee_km": 629.2622302121345,
      "latitude_deg": 7.067156673214223e-05,
      "longitude_deg": -88.4561862701708,
      "height_km": 630.2501614081916,
      "semi_major_axis_km": 7007.6755428587885,
      "eccentricity": 3.943e-05,
      "inclination_deg": 51.8992,
      "raan_deg": 174.1893,
      "arg_perigee_deg": 82.8196,
      "mean_anomaly_deg": 277.2812,
      "mean_motion_rev_day": 14.79932077
    },
    {
      "epoch": "2026-04-20T08:51:53.981856Z",
      "apogee_km": 629.8152973225515,
      "perigee_km": 629.2294569986207,
      "latitude_deg": 3.945245848797623e-05,
      "longitude_deg": -172.6212450810363,
      "height_km": 630.1918211963489,
      "semi_major_axis_km": 7007.659377160586,
      "eccentricity": 4.18e-05,
      "inclination_deg": 51.8996,
      "raan_deg": 168.8143,
      "arg_perigee_deg": 74.8109,
      "mean_anomaly_deg": 285.29,
      "mean_motion_rev_day": 14.79937198
    },
    {
      "epoch": "2026-04-21T20:31:13.651968Z",
      "apogee_km": 629.7483914339664,
      "perigee_km": 629.250849233923,
      "latitude_deg": 6.650313115325944e-06,
      "longitude_deg": 4.5128490337274085,
      "height_km": 630.1680878500626,
      "semi_major_axis_km": 7007.636620333944,
      "eccentricity": 3.55e-05,
      "inclination_deg": 51.8994,
      "raan_deg": 162.2447,
      "arg_perigee_deg": 71.7781,
      "mean_anomaly_deg": 288.322,
      "mean_motion_rev_day": 14.79944407
    },
    {
      "epoch": "2026-04-22T03:00:11.709792Z",
      "apogee_km": 629.7479062804896,
      "perigee_km": 629.2430764358114,
      "latitude_deg": -3.1862109868983934e-05,
      "longitude_deg": -94.18992816694829,
      "height_km": 630.1613453878181,
      "semi_major_axis_km": 7007.63249135815,
      "eccentricity": 3.602e-05,
      "inclination_deg": 51.8995,
      "raan_deg": 161.0501,
      "arg_perigee_deg": 71.4228,
      "mean_anomaly_deg": 288.6773,
      "mean_motion_rev_day": 14.79945715
    },
    {
      "epoch": "2026-04-23T06:33:18.342144Z",
      "apogee_km": 629.7420656444674,
      "perigee_km": 629.2225207500687,
      "latitude_deg": 1.0696537741290513e-06,
      "longitude_deg": -153.6756538532756,
      "height_km": 630.1363011015806,
      "semi_major_axis_km": 7007.619293197267,
      "eccentricity": 3.707e-05,
      "inclination_deg": 51.8995,
      "raan_deg": 155.9735,
      "arg_perigee_deg": 69.1988,
      "mean_anomaly_deg": 290.9014,
      "mean_motion_rev_day": 14.79949896
    }
  ]
}